STARLINK-2397
1 27917C 21021BK  21325.05839206  .00002418  00000-0  16204-3 0  3254
2 27917  53.0558 117.9758 0001626  70.6576 319.9202 15.06392954    11
